{"type":"FeatureCollection","features":[{"type":"Feature","geometry":{"type":"Polygon","coordinates":[[[5.4015217,53.0415675],[5.3949949,53.0319303],[5.3848174,53.044491],[5.3734486,53.0453047],[5.3800393,53.0482218],[5.371824,53.0551303],[5.4038051,53.0517609],[5.3794,53.0916692],[5.3380683,53.0727306],[5.3405448,53.0634024],[5.3311041,53.0734606],[5.3236592,53.0643387],[5.3214295,53.0716315],[5.2980482,53.0675568],[5.0442319,52.9353293],[5.052715,52.9263661],[5.0416866,52.9323743],[5.0373756,52.9225065],[5.0498855,52.9245923],[5.1137389,52.8516745],[5.1038241,52.774662],[5.1209382,52.7705212],[5.1242772,52.75507],[5.1557932,52.7369022],[5.1503819,52.7386136],[5.1813676,52.7418717],[5.1933329,52.755159],[5.2608302,52.752771],[5.271736,52.7475057],[5.2583713,52.7456801],[5.2828072,52.7421868],[5.2879979,52.7148049],[5.3074033,52.7099205],[5.2794309,52.6947407],[5.2958354,52.6914152],[5.3077655,52.7040602],[5.2973735,52.6921933],[5.3577,52.6769353],[5.4173662,52.638336],[5.4682,52.5705],[5.4399,52.5554],[5.4290605,52.5272141],[5.4366238,52.5376895],[5.4340288,52.5286528],[5.4479,52.5355],[5.4570825,52.55362],[5.4948,52.5535],[5.5615,52.5935],[5.6519502,52.6164988],[5.6168047,52.6500474],[5.5913946,52.6610569],[5.5953754,52.7636752],[5.6614608,52.8290247],[5.7102344,52.8347432],[5.7166267,52.8425221],[5.7085236,52.8427932],[5.7085711,52.8363754],[5.7033951,52.8434505],[5.7033831,52.8377408],[5.6983551,52.8442239],[5.6735,52.8451],[5.6756089,52.8502779],[5.6708,52.8397],[5.6434708,52.8607254],[5.6181596,52.8505783],[5.5851238,52.8494493],[5.5728599,52.8358798],[5.5446639,52.8326819],[5.4532234,52.855186],[5.4150586,52.850202],[5.3618306,52.8737672],[5.3536292,52.8859722],[5.3612766,52.8876149],[5.3521608,52.8864978],[5.4079065,52.9134671],[5.3957777,52.9425033],[5.4124529,52.9533393],[5.4030253,52.9596398],[5.4125422,52.9632635],[5.3968486,53.002535],[5.4094013,53.0219832],[5.3969636,53.0242258],[5.4009605,53.0375551],[5.4068472,53.0331028],[5.4035415,53.0483968],[5.4015217,53.0415675]]]},"properties":{"name":"IJsselmeer"}},{"type":"Feature","geometry":{"type":"Polygon","coordinates":[[[5.1227205,52.6311892],[5.0807976,52.6429401],[5.0861952,52.6361756],[5.0776812,52.6414773],[5.0582084,52.6368389],[5.0626465,52.63262],[5.0500519,52.6414854],[5.015687,52.6251693],[5.0236316,52.6244835],[5.0194566,52.6017989],[5.0307835,52.5682458],[5.0866622,52.5040555],[5.0596502,52.4863571],[5.0684748,52.4687678],[5.0330143,52.465523],[5.0392729,52.4579634],[5.0549522,52.4613697],[5.0491557,52.4394996],[5.08882,52.4348185],[5.1027439,52.4667895],[5.0945029,52.4885863],[5.1031365,52.4681692],[5.1393579,52.4597913],[5.0950162,52.4486467],[5.0892001,52.4342938],[5.1616049,52.3998035],[5.2271778,52.4236164],[5.208256,52.4163688],[5.2245944,52.4180266],[5.4346489,52.5112569],[5.4405804,52.517644],[5.4347489,52.5265397],[5.4315246,52.5201187],[5.4290605,52.5272141],[5.4224863,52.5240723],[5.427336,52.5383014],[5.4416042,52.5581616],[5.4674215,52.5695972],[5.4559,52.593],[5.4042187,52.6426618],[5.3957784,52.6365139],[5.3706703,52.6443022],[5.3719538,52.659655],[5.3532974,52.6564321],[5.3514252,52.676731],[5.3032252,52.6905792],[5.2852677,52.6829677],[5.3044873,52.6887055],[5.2926286,52.6812592],[5.2814316,52.6843904],[5.2964857,52.689901],[5.2742587,52.6858886],[5.2837745,52.6922846],[5.2719921,52.6839236],[5.2464888,52.6855565],[5.2307608,52.652824],[5.1592946,52.6231877],[5.1280018,52.6198552],[5.1227205,52.6311892]]]},"properties":{"name":"Markermeer"}},{"type":"Feature","geometry":{"type":"Polygon","coordinates":[[[4.4034094,51.7203526],[4.3729856,51.7346098],[4.3362666,51.7262689],[4.3015411,51.7297431],[4.2583253,51.7486401],[4.2646882,51.7537212],[4.2585767,51.7639808],[4.2280545,51.7802765],[4.2318769,51.7869535],[4.2213757,51.7965826],[4.1836213,51.8035703],[4.1572967,51.8223376],[4.1230078,51.8216241],[4.0901939,51.8056637],[4.1631104,51.7782285],[4.1952035,51.7767558],[4.1901144,51.7729821],[4.1956803,51.7763136],[4.2660827,51.7245699],[4.3249136,51.7037107],[4.3654325,51.7030616],[4.3662478,51.7100156],[4.3658875,51.7029265],[4.3866495,51.7025369],[4.4034094,51.7203526]]]},"properties":{"name":"Haringvliet"}},{"type":"Feature","geometry":{"type":"Polygon","coordinates":[[[3.6726681,51.5642485],[3.7013556,51.5476186],[3.6996636,51.5239348],[3.7600319,51.5551067],[3.8035494,51.5477729],[3.8356132,51.5562186],[3.8661033,51.5396203],[3.8206631,51.5493713],[3.79247,51.5410847],[3.7524515,51.5472235],[3.7603149,51.5428371],[3.7343994,51.5401727],[3.726011,51.5199391],[3.7048856,51.5163156],[3.7213672,51.5132037],[3.7064816,51.5088243],[3.6699314,51.5500996],[3.6386432,51.5630098],[3.6277686,51.5839915],[3.6457054,51.5889263],[3.6526229,51.5705285],[3.6726681,51.5642485]]]},"properties":{"name":"Veerse Meer"}},{"type":"Feature","geometry":{"type":"MultiPolygon","coordinates":[[[[[4.8540554,53.1826537],[4.8724611,53.173156],[4.8781078,53.1573487],[4.9078233,53.1352775],[4.9014423,53.1330908],[4.8970638,53.0784464],[4.8730327,53.0647227],[4.8730197,53.0551878],[4.8490311,53.0351936],[4.8244822,53.0276073],[4.7929594,53.0023177],[4.7481992,53.0103193],[4.7737134,52.9962163],[4.7429313,52.9958215],[4.7155649,53.0036339],[4.7203734,52.9523749],[4.7308369,52.9625741],[4.8013253,52.9645226],[4.7915784,52.937088],[4.8042478,52.9166573],[4.877149,52.8881098],[4.9359664,52.9036933],[4.9681628,52.9307533],[5.0209268,52.9348588],[5.0258823,52.9440007],[5.0431618,52.9354258],[5.2921318,53.0675457],[5.321885,53.0726201],[5.3236523,53.0791077],[5.3509725,53.0789854],[5.3795662,53.0963612],[5.3790676,53.1080932],[5.4044306,53.1215701],[5.4156966,53.164277],[5.4027068,53.1759405],[5.4220322,53.1850435],[5.4370156,53.210797],[5.4820615,53.2402625],[5.5284602,53.2580198],[5.5797673,53.2968012],[5.6750007,53.3191645],[5.7282153,53.3254703],[5.7558581,53.3205297],[5.8109739,53.3513626],[5.8915824,53.3808398],[5.8782552,53.3956659],[5.892796,53.3808131],[6.0161,53.4029],[6.1297389,53.4016133],[6.1777889,53.4146839],[6.2146845,53.4092096],[6.2491,53.4156],[6.307188,53.3925216],[6.3954077,53.4152126],[6.56691,53.4299845],[6.6954639,53.4619619],[6.7511132,53.4658427],[6.7968922,53.4543763],[6.813375,53.4632093],[6.8344526,53.4625541],[6.8844568,53.4435811],[6.8742,53.4081],[6.8881,53.3959],[6.9021,53.3475],[6.9570249,53.3238146],[7.0102403,53.3157885],[7.0098804,53.3062195],[7.0840078,53.3012613],[7.0847588,53.2820431],[7.0710517,53.2649679],[7.0857176,53.2542803],[7.1391762,53.2372463],[7.2111818,53.2337298],[7.1876016,53.332182],[7.005912,53.3265404],[6.9520311,53.3940325],[6.9159253,53.4573583],[6.8576008,53.4687459],[6.8201066,53.4937429],[6.6371316,53.5764233],[6.5777614,53.5470575],[6.5030055,53.5428185],[6.443345,53.5524304],[6.3297925,53.5032867],[6.1987156,53.4966422],[6.2281878,53.4844243],[6.1933692,53.4948082],[6.1893242,53.4870923],[6.2115127,53.4813678],[6.1973105,53.4728003],[6.2019927,53.4682447],[6.1383896,53.4718975],[6.1347063,53.4834003],[6.1578224,53.4964357],[5.891137,53.4536133],[5.8861306,53.4600865],[5.8344332,53.4607453],[5.85035,53.4539107],[5.8355628,53.4539588],[5.8630948,53.4479652],[5.7762964,53.4385329],[5.7742968,53.4327689],[5.7725635,53.4395625],[5.7283527,53.4430151],[5.6807559,53.4246983],[5.6436386,53.4269738],[5.6172819,53.4405189],[5.6207189,53.4557912],[5.425826,53.4296315],[5.4370177,53.418782],[5.4269788,53.4170477],[5.4243141,53.407775],[5.3849305,53.402311],[5.3435052,53.3826209],[5.2263117,53.3658173],[5.2199013,53.3543978],[5.1733937,53.3565234],[5.1788701,53.3639225],[5.1713178,53.3657254],[5.0577062,53.3059007],[5.0974799,53.3038728],[5.0919232,53.2946584],[5.0628414,53.2938964],[4.9682142,53.2661644],[4.9753033,53.2555281],[4.9431577,53.2511247],[4.8319117,53.2064476],[4.8540554,53.1826537]]]],[[[[7.0765865,53.2906792],[7.0834482,53.2814741],[7.0831348,53.3008546],[7.0752212,53.2995287],[7.0765865,53.2906792]]]]]},"properties":{"name":"Waddenzee"}},{"type":"Feature","geometry":{"type":"Polygon","coordinates":[[[3.8946007,51.7840085],[3.889173,51.7937468],[3.9533635,51.80389],[3.9914116,51.8015219],[4.0204822,51.7792456],[4.0253539,51.7682904],[4.0182529,51.7603492],[4.0298538,51.7568981],[4.0174553,51.7522987],[4.0240218,51.7418713],[4.0286255,51.7476401],[4.038924,51.7436916],[4.0313999,51.7385777],[4.0448455,51.7309203],[4.0404314,51.7272567],[4.0541509,51.7063947],[4.0507038,51.7117039],[4.0581827,51.715143],[4.0900926,51.7050676],[4.1291104,51.70613],[4.1625036,51.6877195],[4.1483218,51.6787614],[4.1133423,51.6790511],[4.0917065,51.6670832],[4.0445209,51.6845896],[4.0149718,51.6866332],[4.0095121,51.7005021],[3.982073,51.7177146],[3.9719396,51.7342203],[3.9130505,51.7296416],[3.8874585,51.7452235],[3.8257932,51.7388587],[3.837348,51.7552579],[3.8338028,51.7501983],[3.846344,51.7571838],[3.871145,51.7508684],[3.8742818,51.754905],[3.8613843,51.7619576],[3.8553318,51.7578374],[3.8692854,51.7810076],[3.8946007,51.7840085]]]},"properties":{"name":"Grevelingenmeer"}}]}